FALCONSAT-6             
1 43815U 18099BK  26068.72544389  .00005029  00000+0  19477-3 0  9998
2 43815  97.3865 145.8165 0014370 297.0944 181.0714 15.26532865398556
STARLINK-31081          
1 58632U 23203Q   26068.05330521 -.00001326  00000+0 -38670-4 0  9996
2 58632  43.0042  74.1567 0001210 279.3892  80.6822 15.27566603124658
